NORAD_CAT_ID,OBJECT_NAME,OBJECT_TYPE,EPOCH,MEAN_MOTION,ECCENTRICITY,INCLINATION,RA_OF_ASC_NODE,ARG_OF_PERICENTER,MEAN_ANOMALY,BSTAR,MEAN_MOTION_DOT,MEAN_MOTION_DDOT,TLE_LINE0,TLE_LINE1,TLE_LINE2,SEMIMAJOR_AXIS,PERIOD,APOGEE,PERIGEE,DECAYED
56806.0,STARLINK-6072,PAYLOAD,2023-08-26 05:04:41,15.69917267,0.0003146,69.9993,168.8644,262.3978,97.686,1.8844e-05,2.053e-05,0.0,0 STARLINK-6072,1 56806U 23078AR  23238.21158740  .00002053  00000-0  18844-4 0  9990,2 56806  69.9993 168.8644 0003146 262.3978  97.6860 15.69917267 13698,6737.271,91.725,361.255,357.016,0.0
56806.0,STARLINK-6072,PAYLOAD,2023-08-26 18:50:26,15.69927225,0.000337,69.9983,167.2506,266.3027,93.7784,1.6886e-05,1.818e-05,0.0,0 STARLINK-6072,1 56806U 23078AR  23238.78503147  .00001818  00000-0  16886-4 0  9999,2 56806  69.9983 167.2506 0003370 266.3027  93.7784 15.69927225 14042,6737.242,91.724,361.378,356.837,0.0
56806.0,STARLINK-6072,PAYLOAD,2023-08-26 20:22:11,15.69930524,0.0003208,69.9982,167.0712,268.5021,91.5807,1.0542e-05,1.055e-05,0.0,0 STARLINK-6072,1 56806U 23078AR  23238.84874724  .00001055  00000-0  10542-4 0  9994,2 56806  69.9982 167.0712 0003208 268.5021  91.5807 15.69930524 13795,6737.233,91.724,361.259,356.936,0.0
56806.0,STARLINK-6072,PAYLOAD,2023-08-26 23:25:41,15.69941724,0.0003413,69.9979,166.7122,268.1655,91.915,-7.1954e-06,-1.079e-05,0.0,0 STARLINK-6072,1 56806U 23078AR  23238.97617691 -.00001079  00000-0 -71954-5 0  9999,2 56806  69.9979 166.7122 0003413 268.1655  91.9150 15.69941724 14070,6737.201,91.723,361.365,356.766,0.0
56806.0,STARLINK-6072,PAYLOAD,2023-08-27 04:01:00,15.69832948,0.0002539,69.9979,166.1751,276.8353,83.2554,0.00021522,0.00025644,0.0,0 STARLINK-6072,1 56806U 23078AR  23239.16737257  .00025644  00000-0  21522-3 0  9998,2 56806  69.9979 166.1751 0002539 276.8353  83.2554 15.69832948 14104,6737.512,91.73,361.088,357.666,0.0
56806.0,STARLINK-6072,PAYLOAD,2023-08-27 13:11:28,15.69920378,0.0002958,69.9976,165.1,263.3608,96.7251,7.0699e-06,6.37e-06,0.0,0 STARLINK-6072,1 56806U 23078AR  23239.54963895  .00000637  00000-0  70699-5 0  9995,2 56806  69.9976 165.1000 0002958 263.3608  96.7251 15.69920378 14160,6737.262,91.724,361.12,357.134,0.0
56806.0,STARLINK-6072,PAYLOAD,2023-08-27 20:50:13,15.69926636,0.0003232,69.9967,164.2027,264.1494,95.9334,2.0042e-05,2.198e-05,0.0,0 STARLINK-6072,1 56806U 23078AR  23239.86821682  .00002198  00000-0  20042-4 0  9997,2 56806  69.9967 164.2027 0003232 264.1494  95.9334 15.69926636 13959,6737.244,91.724,361.286,356.931,0.0
56806.0,STARLINK-6072,PAYLOAD,2023-08-28 04:28:43,15.70170272,0.0002262,69.9982,163.3083,230.8873,129.2122,0.00029138,0.00035325,0.0,0 STARLINK-6072,1 56806U 23078AR  23240.18661426  .00035325  00000-0  29138-3 0  9994,2 56806  69.9982 163.3083 0002262 230.8873 129.2122 15.70170272 14261,6736.547,91.71,359.936,356.888,0.0
56806.0,STARLINK-6072,PAYLOAD,2023-08-28 12:08:07,15.69639966,0.000307,69.9987,162.4139,251.3704,108.7159,-0.00029972,-0.00035677,0.0,0 STARLINK-6072,1 56806U 23078AR  23240.50564678 -.00035677  00000-0 -29972-3 0  9999,2 56806  69.9987 162.4139 0003070 251.3704 108.7159 15.69639966 14313,6738.064,91.741,361.998,357.861,0.0
56806.0,STARLINK-6072,PAYLOAD,2023-08-28 22:50:01,15.69919065,0.0003608,69.9978,161.1589,272.01,88.0682,-8.6612e-07,-3.17e-06,0.0,0 STARLINK-6072,1 56806U 23078AR  23240.95140822 -.00000317  00000-0 -86612-6 0  9999,2 56806  69.9978 161.1589 0003608 272.0100  88.0682 15.69919065 14384,6737.266,91.724,361.561,356.7,0.0
56806.0,STARLINK-6072,PAYLOAD,2023-08-29 06:28:47,15.69922112,0.0003201,69.9981,160.2625,266.3285,93.7545,4.8877e-06,3.75e-06,0.0,0 STARLINK-6072,1 56806U 23078AR  23241.26998881  .00000375  00000-0  48877-5 0  9992,2 56806  69.9981 160.2625 0003201 266.3285  93.7545 15.69922112 14432,6737.257,91.724,361.278,356.965,0.0
56806.0,STARLINK-6072,PAYLOAD,2023-08-30 11:32:48,15.69290595,0.0005313,69.9999,156.8668,221.1703,138.9092,-0.00028915,-0.00033963,0.0,0 STARLINK-6072,1 56806U 23078AR  23242.48111755 -.00033963  00000-0 -28915-3 0  9994,2 56806  69.9999 156.8668 0005313 221.1703 138.9092 15.69290595 14622,6739.064,91.761,364.51,357.349,0.0
56806.0,STARLINK-6072,PAYLOAD,2023-08-31 04:00:01,15.69901173,0.0003438,70.0001,154.931,273.3407,3.1276,0.00040524,0.00048752,0.0,0 STARLINK-6072,1 56806U 23078AR  23243.16668981  .00048752  00000-0  40524-3 0  9998,2 56806  70.0001 154.9310 0003438 273.3407   3.1276 15.69901173 14738,6737.317,91.726,361.498,356.865,0.0
56806.0,STARLINK-6072,PAYLOAD,2023-08-31 08:00:01,15.69949034,0.00034,69.9998,154.4623,272.6193,225.5022,-0.00036497,-0.00043914,0.0,0 STARLINK-6072,1 56806U 23078AR  23243.33335648 -.00043914  00000-0 -36497-3 0  9999,2 56806  69.9998 154.4623 0003400 272.6193 225.5022 15.69949034 14754,6737.18,91.723,361.335,356.754,0.0
56806.0,STARLINK-6072,PAYLOAD,2023-08-31 19:38:38,15.70079783,0.0003715,69.9961,153.1005,271.3099,88.7671,0.0001598,0.00019171,0.0,0 STARLINK-6072,1 56806U 23078AR  23243.81850006  .00019171  00000-0  15980-3 0  9992,2 56806  69.9961 153.1005 0003715 271.3099  88.7671 15.70079783 14570,6736.806,91.715,361.174,356.168,0.0
56806.0,STARLINK-6072,PAYLOAD,2023-08-31 22:42:09,15.70055683,0.0004205,69.9964,152.7424,269.3403,90.7311,0.00013478,0.00016115,0.0,0 STARLINK-6072,1 56806U 23078AR  23243.94594693  .00016115  00000-0  13478-3 0  9998,2 56806  69.9964 152.7424 0004205 269.3403  90.7311 15.70055683 14852,6736.875,91.716,361.573,355.907,0.0
56806.0,STARLINK-6072,PAYLOAD,2023-09-01 10:56:01,15.70129953,0.0003684,69.9971,151.3048,282.1253,77.953,0.0002048,0.00024697,0.0,0 STARLINK-6072,1 56806U 23078AR  23244.45557473  .00024697  00000-0  20480-3 0  9995,2 56806  69.9971 151.3048 0003684 282.1253  77.9530 15.70129953 14934,6736.662,91.712,361.009,356.045,0.0
56806.0,STARLINK-6072,PAYLOAD,2023-09-01 17:01:45,15.71222975,0.0009532,69.9896,150.5891,268.0611,91.9494,0.0013454,0.00174473,0.0,0 STARLINK-6072,1 56806U 23078AR  23244.70955069  .00174473  00000-0  13454-2 0  9996,2 56806  69.9896 150.5891 0009532 268.0611  91.9494 15.71222975 14974,6733.538,91.648,361.821,348.984,0.0
56806.0,STARLINK-6072,PAYLOAD,2023-09-02 04:00:00,15.69903024,0.0003492,69.9992,149.3077,275.3663,141.0563,0.00033218,0.00039885,0.0,0 STARLINK-6072,1 56806U 23078AR  23245.16667824  .00039885  00000-0  33218-3 0  9994,2 56806  69.9992 149.3077 0003492 275.3663 141.0563 15.69903024 15041,6737.311,91.725,361.529,356.824,0.0
56806.0,STARLINK-6072,PAYLOAD,2023-09-02 08:00:01,15.69937131,0.0003502,69.9989,148.8391,273.9966,4.0746,-0.00021404,-0.00025885,0.0,0 STARLINK-6072,1 56806U 23078AR  23245.33334491 -.00025885  00000-0 -21404-3 0  9995,2 56806  69.9989 148.8391 0003502 273.9966   4.0746 15.69937131 15072,6737.214,91.723,361.438,356.719,0.0
56806.0,STARLINK-6072,PAYLOAD,2023-09-02 11:24:25,15.69924977,0.0003421,69.9939,148.4405,269.3675,90.7128,7.0263e-06,6.32e-06,0.0,0 STARLINK-6072,1 56806U 23078AR  23245.47529314  .00000632  00000-0  70263-5 0  9990,2 56806  69.9939 148.4405 0003421 269.3675  90.7128 15.69924977 14838,6737.249,91.724,361.418,356.809,0.0
56806.0,STARLINK-6072,PAYLOAD,2023-09-02 12:56:10,15.69927088,0.0003383,69.9953,148.2614,271.6477,88.4331,9.2499e-06,9e-06,0.0,0 STARLINK-6072,1 56806U 23078AR  23245.53900848  .00000900  00000-0  92499-5 0  9995,2 56806  69.9953 148.2614 0003383 271.6477  88.4331 15.69927088 15104,6737.243,91.724,361.387,356.828,0.0
56806.0,STARLINK-6072,PAYLOAD,2023-09-02 19:03:09,15.69937219,0.0003542,69.9964,147.5436,269.1214,90.9576,3.4984e-05,3.998e-05,0.0,0 STARLINK-6072,1 56806U 23078AR  23245.79386061  .00003998  00000-0  34984-4 0  9992,2 56806  69.9964 147.5436 0003542 269.1214  90.9576 15.69937219 14888,6737.214,91.723,361.465,356.692,0.0
56806.0,STARLINK-6072,PAYLOAD,2023-09-03 12:00:00,15.69862973,0.00033,69.9989,145.5587,264.9496,124.8126,0.00073965,0.0008945,0.0,0 STARLINK-6072,1 56806U 23078AR  23246.50001157  .00089450  00000-0  73965-3 0  9990,2 56806  69.9989 145.5587 0003300 264.9496 124.8126 15.69862973 15251,6737.426,91.728,361.514,357.068,0.0
56806.0,STARLINK-6072,PAYLOAD,2023-09-03 14:00:01,15.69856607,0.0003336,69.9988,145.3245,263.5011,237.0873,0.0010844,0.00131876,0.0,0 STARLINK-6072,1 56806U 23078AR  23246.58334491  .00131876  00000-0  10844-2 0  9994,2 56806  69.9988 145.3245 0003336 263.5011 237.0873 15.69856607  6035,6737.444,91.728,361.557,357.062,0.0
56806.0,STARLINK-6072,PAYLOAD,2023-09-03 21:02:58,15.69926717,0.0003799,69.9978,144.4985,273.7298,86.3463,2.1778e-05,2.407e-05,0.0,0 STARLINK-6072,1 56806U 23078AR  23246.87706108  .00002407  00000-0  21778-4 0  9991,2 56806  69.9978 144.4985 0003799 273.7298  86.3463 15.69926717 15319,6737.244,91.724,361.668,356.549,0.0
56806.0,STARLINK-6072,PAYLOAD,2023-09-04 10:48:44,15.69919891,0.0003179,69.9975,142.8859,266.3717,93.7115,1.8506e-05,2.013e-05,0.0,0 STARLINK-6072,1 56806U 23078AR  23247.45051435  .00002013  00000-0  18506-4 0  9990,2 56806  69.9975 142.8859 0003179 266.3717  93.7115 15.69919891 15146,6737.263,91.724,361.27,356.986,0.0
56806.0,STARLINK-6072,PAYLOAD,2023-09-05 04:00:00,15.6990457,0.0003267,69.9987,140.8723,275.4129,171.025,0.00033441,0.00040157,0.0,0 STARLINK-6072,1 56806U 23078AR  23248.16667824  .00040157  00000-0  33441-3 0  9999,2 56806  69.9987 140.8723 0003267 275.4129 171.0250 15.69904570 15512,6737.307,91.725,361.373,356.971,0.0
56806.0,STARLINK-6072,PAYLOAD,2023-09-05 14:00:01,15.69911414,0.0003242,69.9989,139.7012,270.5985,10.0167,0.00016189,0.00019287,0.0,0 STARLINK-6072,1 56806U 23078AR  23248.58334491  .00019287  00000-0  16189-3 0  9996,2 56806  69.9989 139.7012 0003242 270.5985  10.0167 15.69911414  6032,6737.287,91.725,361.337,356.968,0.0
56806.0,STARLINK-6072,PAYLOAD,2023-09-05 20:00:01,15.69932328,0.0003313,69.9992,138.9984,273.4301,339.6784,-0.00011505,-0.00014028,0.0,0 STARLINK-6072,1 56806U 23078AR  23248.83334491 -.00014028  00000-0 -11505-3 0  9991,2 56806  69.9992 138.9984 0003313 273.4301 339.6784 15.69932328 15625,6737.228,91.724,361.325,356.861,0.0
